[{"OBJECT_NAME":"STARLINK-33929","OBJECT_ID":"2025-113U","EPOCH":"2026-03-09T07:01:23.677824","MEAN_MOTION":15.30193129,"ECCENTRICITY":9.774e-5,"INCLINATION":53.1576,"RA_OF_ASC_NODE":93.0195,"ARG_OF_PERICENTER":77.6055,"MEAN_ANOMALY":282.5055,"EPHEMERIS_TYPE":0,"CLASSIFICATION_TYPE":"U","NORAD_CAT_ID":64188,"ELEMENT_SET_NO":999,"REV_AT_EPOCH":4500,"BSTAR":0.00038189977,"MEAN_MOTION_DOT":0.00010966,"MEAN_MOTION_DDOT":0},{"OBJECT_NAME":"COSMOS 2251 DEB","OBJECT_ID":"1993-036AWN","EPOCH":"2026-03-09T06:26:08.321568","MEAN_MOTION":15.11257706,"ECCENTRICITY":0.00842289,"INCLINATION":74.0116,"RA_OF_ASC_NODE":284.5024,"ARG_OF_PERICENTER":350.308,"MEAN_ANOMALY":9.6482,"EPHEMERIS_TYPE":0,"CLASSIFICATION_TYPE":"U","NORAD_CAT_ID":35996,"ELEMENT_SET_NO":999,"REV_AT_EPOCH":73632,"BSTAR":0.00055219842,"MEAN_MOTION_DOT":0.00010085,"MEAN_MOTION_DDOT":0}]
